{"type": "FeatureCollection", "features": [ {"type": "Feature", "properties": {"norad_id": 39620, "name": "COSMOS 2492 (754)", "group": "gnss", "lat": -60.65351329485569, "lon": -94.47427561305811, "alt_km": 19103.52406418014, "timestamp": "2025-12-18T13:51:49.923415+00:00", "meta": {"OBJECT_NAME": "COSMOS 2492 (754)", "OBJECT_ID": "2014-012A", "EPOCH": "2025-12-18T04:53:42.056736", "MEAN_MOTION": 2.13103354, "ECCENTRICITY": 0.0014217, "INCLINATION": 65.4043, "RA_OF_ASC_NODE": 320.0846, "ARG_OF_PERICENTER": 312.4931, "MEAN_ANOMALY": 47.3782, "EPHEMERIS_TYPE": 0, "CLASSIFICATION_TYPE": "U", "NORAD_CAT_ID": 39620, "ELEMENT_SET_NO": 999, "REV_AT_EPOCH": 9138, "BSTAR": 0, "MEAN_MOTION_DOT": -6.4e-07, "MEAN_MOTION_DDOT": 0}, "tle": {"line1": "1 39620U 14012A   25352.20395899 -.00000064  00000+0  00000+0 0  9999", "line2": "2 39620  65.4043 320.0846 0014217 312.4931  47.3782  2.13103354 91389"}}, "geometry": {"type": "Point", "coordinates": [-94.47427561305811, -60.65351329485569]}}, {"type": "Feature", "properties": {"norad_id": 39635, "name": "IRNSS-1B", "group": "gnss", "lat": 27.875645188630422, "lon": -7.102660637649484, "alt_km": 35844.4622300391, "timestamp": "2025-12-18T13:51:49.923427+00:00", "meta": {"OBJECT_NAME": "IRNSS-1B", "OBJECT_ID": "2014-017A", "EPOCH": "2025-12-17T18:43:29.026848", "MEAN_MOTION": 1.00270156, "ECCENTRICITY": 0.00188771, "INCLINATION": 29.2563, "RA_OF_ASC_NODE": 243.5188, "ARG_OF_PERICENTER": 247.8275, "MEAN_ANOMALY": 291.5675, "EPHEMERIS_TYPE": 0, "CLASSIFICATION_TYPE": "U", "NORAD_CAT_ID": 39635, "ELEMENT_SET_NO": 999, "REV_AT_EPOCH": 4297, "BSTAR": 0, "MEAN_MOTION_DOT": 1.47e-06, "MEAN_MOTION_DDOT": 0}, "tle": {"line1": "1 39635U 14017A   25351.78019707  .00000147  00000+0  00000+0 0  9994", "line2": "2 39635  29.2563 243.5188 0018877 247.8275 291.5675  1.00270156 42971"}}, "geometry": {"type": "Point", "coordinates": [-7.102660637649484, 27.875645188630422]}}, {"type": "Feature", "properties": {"norad_id": 39727, "name": "LUCH 5V (SDCM/PRN 141)", "group": "gnss", "lat": -3.079219692710295, "lon": 30.20805837134742, "alt_km": 35793.16176748959, "timestamp": "2025-12-18T13:51:49.923440+00:00", "meta": {"OBJECT_NAME": "LUCH 5V (SDCM/PRN 141)", "OBJECT_ID": "2014-023A", "EPOCH": "2025-12-18T06:53:47.192064", "MEAN_MOTION": 1.0026764, "ECCENTRICITY": 0.00043143, "INCLINATION": 4.6828, "RA_OF_ASC_NODE": 71.4882, "ARG_OF_PERICENTER": 211.3355, "MEAN_ANOMALY": 2.4548, "EPHEMERIS_TYPE": 0, "CLASSIFICATION_TYPE": "U", "NORAD_CAT_ID": 39727, "ELEMENT_SET_NO": 999, "REV_AT_EPOCH": 4254, "BSTAR": 0, "MEAN_MOTION_DOT": -2.47e-06, "MEAN_MOTION_DDOT": 0}, "tle": {"line1": "1 39727U 14023A   25352.28735176 -.00000247  00000+0  00000+0 0  9996", "line2": "2 39727   4.6828  71.4882 0004314 211.3355   2.4548  1.00267640 42544"}}, "geometry": {"type": "Point", "coordinates": [30.20805837134742, -3.079219692710295]}}, {"type": "Feature", "properties": {"norad_id": 39741, "name": "GPS BIIF-6  (PRN 06)", "group": "gnss", "lat": 52.888035814844734, "lon": 39.30509688615461, "alt_km": 20218.44095866906, "timestamp": "2025-12-18T13:51:49.923452+00:00", "meta": {"OBJECT_NAME": "GPS BIIF-6  (PRN 06)", "OBJECT_ID": "2014-026A", "EPOCH": "2025-12-17T23:28:49.261152", "MEAN_MOTION": 2.00561085, "ECCENTRICITY": 0.00393157, "INCLINATION": 56.5816, "RA_OF_ASC_NODE": 338.5726, "ARG_OF_PERICENTER": 318.9878, "MEAN_ANOMALY": 40.7245, "EPHEMERIS_TYPE": 0, "CLASSIFICATION_TYPE": "U", "NORAD_CAT_ID": 39741, "ELEMENT_SET_NO": 999, "REV_AT_EPOCH": 8490, "BSTAR": 0, "MEAN_MOTION_DOT": -8.4e-07, "MEAN_MOTION_DDOT": 0}, "tle": {"line1": "1 39741U 14026A   25351.97834793 -.00000084  00000+0  00000+0 0  9994", "line2": "2 39741  56.5816 338.5726 0039315 318.9878  40.7245  2.00561085 84906"}}, "geometry": {"type": "Point", "coordinates": [39.30509688615461, 52.888035814844734]}}, {"type": "Feature", "properties": {"norad_id": 40001, "name": "COSMOS 2500 (755)", "group": "gnss", "lat": 22.97826990557151, "lon": 128.5884547688961, "alt_km": 19118.28354966955, "timestamp": "2025-12-18T13:51:49.923464+00:00", "meta": {"OBJECT_NAME": "COSMOS 2500 (755)", "OBJECT_ID": "2014-032A", "EPOCH": "2025-12-17T21:45:50.523264", "MEAN_MOTION": 2.13106065, "ECCENTRICITY": 0.00080575, "INCLINATION": 65.3403, "RA_OF_ASC_NODE": 319.8565, "ARG_OF_PERICENTER": 219.1485, "MEAN_ANOMALY": 140.7851, "EPHEMERIS_TYPE": 0, "CLASSIFICATION_TYPE": "U", "NORAD_CAT_ID": 40001, "ELEMENT_SET_NO": 999, "REV_AT_EPOCH": 8959, "BSTAR": 0, "MEAN_MOTION_DOT": -6.5e-07, "MEAN_MOTION_DDOT": 0}, "tle": {"line1": "1 40001U 14032A   25351.90683476 -.00000065  00000+0  00000+0 0  9994", "line2": "2 40001  65.3403 319.8565 0008057 219.1485 140.7851  2.13106065 89596"}}, "geometry": {"type": "Point", "coordinates": [128.5884547688961, 22.97826990557151]}}, {"type": "Feature", "properties": {"norad_id": 40105, "name": "GPS BIIF-7  (PRN 09)", "group": "gnss", "lat": 8.019246324881474, "lon": 101.27096542062438, "alt_km": 20210.385952881752, "timestamp": "2025-12-18T13:51:49.923475+00:00", "meta": {"OBJECT_NAME": "GPS BIIF-7  (PRN 09)", "OBJECT_ID": "2014-045A", "EPOCH": "2025-12-16T13:40:35.692320", "MEAN_MOTION": 2.00572829, "ECCENTRICITY": 0.00326078, "INCLINATION": 55.2314, "RA_OF_ASC_NODE": 95.7461, "ARG_OF_PERICENTER": 119.9914, "MEAN_ANOMALY": 240.3146, "EPHEMERIS_TYPE": 0, "CLASSIFICATION_TYPE": "U", "NORAD_CAT_ID": 40105, "ELEMENT_SET_NO": 999, "REV_AT_EPOCH": 8241, "BSTAR": 0, "MEAN_MOTION_DOT": -4.2e-07, "MEAN_MOTION_DDOT": 0}, "tle": {"line1": "1 40105U 14045A   25350.56985755 -.00000042  00000+0  00000+0 0  9994", "line2": "2 40105  55.2314  95.7461 0032607 119.9914 240.3146  2.00572829 82416"}}, "geometry": {"type": "Point", "coordinates": [101.27096542062438, 8.019246324881474]}}, {"type": "Feature", "properties": {"norad_id": 40128, "name": "GSAT0201 (GALILEO 5)", "group": "gnss", "lat": 1.3200835512260378, "lon": 99.66426370040143, "alt_km": 16997.05584959471, "timestamp": "2025-12-18T13:51:49.923491+00:00", "meta": {"OBJECT_NAME": "GSAT0201 (GALILEO 5)", "OBJECT_ID": "2014-050A", "EPOCH": "2025-12-14T00:08:14.916480", "MEAN_MOTION": 1.85519648, "ECCENTRICITY": 0.16480052, "INCLINATION": 49.0753, "RA_OF_ASC_NODE": 281.012, "ARG_OF_PERICENTER": 172.3262, "MEAN_ANOMALY": 190.5827, "EPHEMERIS_TYPE": 0, "CLASSIFICATION_TYPE": "U", "NORAD_CAT_ID": 40128, "ELEMENT_SET_NO": 999, "REV_AT_EPOCH": 7488, "BSTAR": 0, "MEAN_MOTION_DOT": -9.9e-07, "MEAN_MOTION_DDOT": 0}, "tle": {"line1": "1 40128U 14050A   25348.00572820 -.00000099  00000+0  00000+0 0  9998", "line2": "2 40128  49.0753 281.0120 1648005 172.3262 190.5827  1.85519648 74882"}}, "geometry": {"type": "Point", "coordinates": [99.66426370040143, 1.3200835512260378]}}, {"type": "Feature", "properties": {"norad_id": 40129, "name": "GSAT0202 (GALILEO 6)", "group": "gnss", "lat": 1.3966917943139814, "lon": -78.89786356935701, "alt_km": 26146.53559268318, "timestamp": "2025-12-18T13:51:49.923503+00:00", "meta": {"OBJECT_NAME": "GSAT0202 (GALILEO 6)", "OBJECT_ID": "2014-050B", "EPOCH": "2025-12-14T06:17:14.023104", "MEAN_MOTION": 1.85520414, "ECCENTRICITY": 0.16487132, "INCLINATION": 49.0906, "RA_OF_ASC_NODE": 280.0852, "ARG_OF_PERICENTER": 173.0839, "MEAN_ANOMALY": 189.5459, "EPHEMERIS_TYPE": 0, "CLASSIFICATION_TYPE": "U", "NORAD_CAT_ID": 40129, "ELEMENT_SET_NO": 999, "REV_AT_EPOCH": 7705, "BSTAR": 0, "MEAN_MOTION_DOT": -9.7e-07, "MEAN_MOTION_DDOT": 0}, "tle": {"line1": "1 40129U 14050B   25348.26196786 -.00000097  00000+0  00000+0 0  9998", "line2": "2 40129  49.0906 280.0852 1648713 173.0839 189.5459  1.85520414 77052"}}, "geometry": {"type": "Point", "coordinates": [-78.89786356935701, 1.3966917943139814]}}, {"type": "Feature", "properties": {"norad_id": 40269, "name": "IRNSS-1C", "group": "gnss", "lat": -5.821535235331373, "lon": 18.247377789323597, "alt_km": 35767.115674053144, "timestamp": "2025-12-18T13:51:49.923557+00:00", "meta": {"OBJECT_NAME": "IRNSS-1C", "OBJECT_ID": "2014-061A", "EPOCH": "2025-12-18T02:18:21.631680", "MEAN_MOTION": 1.00274348, "ECCENTRICITY": 0.00180654, "INCLINATION": 6.055, "RA_OF_ASC_NODE": 92.5152, "ARG_OF_PERICENTER": 1.4455, "MEAN_ANOMALY": 110.5584, "EPHEMERIS_TYPE": 0, "CLASSIFICATION_TYPE": "U", "NORAD_CAT_ID": 40269, "ELEMENT_SET_NO": 999, "REV_AT_EPOCH": 4087, "BSTAR": 0, "MEAN_MOTION_DOT": -1.42e-06, "MEAN_MOTION_DDOT": 0}, "tle": {"line1": "1 40269U 14061A   25352.09608370 -.00000142  00000+0  00000+0 0  9999", "line2": "2 40269   6.0550  92.5152 0018065   1.4455 110.5584  1.00274348 40874"}}, "geometry": {"type": "Point", "coordinates": [18.247377789323597, -5.821535235331373]}}, {"type": "Feature", "properties": {"norad_id": 40294, "name": "GPS BIIF-8  (PRN 03)", "group": "gnss", "lat": 55.844578913830254, "lon": 143.76676237099787, "alt_km": 20034.960798957272, "timestamp": "2025-12-18T13:51:49.923573+00:00", "meta": {"OBJECT_NAME": "GPS BIIF-8  (PRN 03)", "OBJECT_ID": "2014-068A", "EPOCH": "2025-12-16T22:42:57.008160", "MEAN_MOTION": 2.00565217, "ECCENTRICITY": 0.00607888, "INCLINATION": 56.8609, "RA_OF_ASC_NODE": 37.9832, "ARG_OF_PERICENTER": 69.0803, "MEAN_ANOMALY": 291.6294, "EPHEMERIS_TYPE": 0, "CLASSIFICATION_TYPE": "U", "NORAD_CAT_ID": 40294, "ELEMENT_SET_NO": 999, "REV_AT_EPOCH": 8155, "BSTAR": 0, "MEAN_MOTION_DOT": -7.8e-07, "MEAN_MOTION_DDOT": 0}, "tle": {"line1": "1 40294U 14068A   25350.94649315 -.00000078  00000+0  00000+0 0  9998", "line2": "2 40294  56.8609  37.9832 0060788  69.0803 291.6294  2.00565217 81552"}}, "geometry": {"type": "Point", "coordinates": [143.76676237099787, 55.844578913830254]}}]}